      2.10          N: GNSS NAV DATA                        RINEX VERSION / TYPE
fic2rin                                 04/03/2023 00:17:14 PGM / RUN BY / DATE
                                                            END OF HEADER
27 23  4  2  8  0  0.0  .678179785609D-04 -.818545231596D-11  .000000000000D+00
     .350000000000D+02 -.975000000000D+01  .400766693541D-08 -.306005939263D+01
    -.564381480217D-06  .115413564490D-01  .993348658085D-05  .515366910744D+04
     .288000000000D+05  .931322574615D-08  .220489001102D+01 -.134110450745D-06
     .968200273839D+00  .191656250000D+03  .719479019155D+00 -.764889003554D-08
    -.363943731146D-09  .100000000000D+01  .225600000000D+04  .000000000000D+00
     .240000000000D+01  .000000000000D+00  .186264514923D-08  .350000000000D+02
     .216000000000D+05  .400000000000D+01
21 23  4  2  8  0  0.0  .154312234372D-03  .000000000000D+00  .000000000000D+00
     .490000000000D+02  .101531250000D+03  .417767401689D-08 -.313046975242D+01
     .520981848240D-05  .248063094914D-01  .895000994205D-05  .515364466286D+04
     .288000000000D+05 -.931322574615D-08 -.311344602928D+01  .381842255592D-06
     .961915114026D+00  .199343750000D+03 -.784588966354D+00 -.763817530352D-08
     .353228999120D-09  .100000000000D+01  .225600000000D+04  .000000000000D+00
     .240000000000D+01  .000000000000D+00 -.102445483208D-07  .490000000000D+02
     .216000000000D+05  .400000000000D+01
29 23  4  2  8  0  0.0 -.593690201640D-03 -.170530256582D-11  .000000000000D+00
     .100000000000D+03 -.825000000000D+01  .392837791842D-08 -.296987051059D+01
    -.409781932831D-06  .235780060757D-02  .954605638981D-05  .515356053352D+04
     .288000000000D+05  .335276126862D-07  .228414516329D+01  .204890966415D-07
     .977144666158D+00  .204375000000D+03  .238304259623D+01 -.769603485646D-08
    -.351443210449D-09  .100000000000D+01  .225600000000D+04  .000000000000D+00
     .340000000000D+01  .000000000000D+00 -.102445483208D-07  .100000000000D+03
     .216000000000D+05  .400000000000D+01
32 23  4  2  8  0  0.0 -.440429896116D-03 -.104591890704D-10  .000000000000D+00
     .920000000000D+02 -.939687500000D+02  .450411618595D-08 -.241417420247D+01
    -.478699803352D-05  .680413318332D-02  .945664942265D-05  .515373430252D+04
     .288000000000D+05  .145286321640D-06 -.942360835191D+00 -.353902578354D-07
     .959433678732D+00  .193562500000D+03 -.222339400977D+01 -.796890336538D-08
    -.165721188667D-09  .100000000000D+01  .225600000000D+04  .000000000000D+00
     .240000000000D+01  .000000000000D+00  .465661287308D-09  .920000000000D+02
     .216000000000D+05  .400000000000D+01
20 23  4  2  8  0  0.0  .441384036094D-03 -.216004991671D-11  .000000000000D+00
     .810000000000D+02  .139375000000D+02  .515057168484D-08  .183474378060D+01
     .599771738052D-06  .427322415635D-02  .255554914474D-05  .515378214836D+04
     .288000000000D+05 -.186264514923D-07 -.214793265173D+01  .106170773506D-06
     .947466189610D+00  .319625000000D+03 -.288728919025D+01 -.858678624554D-08
     .181078971237D-09  .100000000000D+01  .225600000000D+04  .000000000000D+00
     .340000000000D+01  .000000000000D+00 -.838190317154D-08  .810000000000D+02
     .216000000000D+05  .400000000000D+01
26 23  4  2  8  0  0.0  .241926871240D-03 -.113686837722D-12  .000000000000D+00
     .560000000000D+02  .159375000000D+02  .537665253059D-08 -.126968162370D+01
     .832602381706D-06  .788121728692D-02  .439770519733D-05  .515365836334D+04
     .288000000000D+05  .156462192535D-06  .109427728225D+01 -.128522515297D-06
     .934213595712D+00  .280531250000D+03  .462217687599D+00 -.851606901417D-08
    -.750031241812D-10  .100000000000D+01  .225600000000D+04  .000000000000D+00
     .240000000000D+01  .000000000000D+00  .698491930962D-08  .560000000000D+02
     .216000000000D+05  .400000000000D+01
13 23  4  2  8  0  0.0  .499668531120D-03  .568434188608D-11  .000000000000D+00
     .410000000000D+02 -.728750000000D+02  .422303304913D-08  .278709570259D+01
    -.385195016861D-05  .683493667748D-02  .984780490398D-05  .515367341232D+04
     .288000000000D+05 -.149011611938D-07 -.795893750661D+00 -.106170773506D-06
     .969713988823D+00  .193687500000D+03  .917855005831D+00 -.771103548129D-08
    -.165721188667D-09  .100000000000D+01  .225600000000D+04  .000000000000D+00
     .240000000000D+01  .000000000000D+00 -.111758708954D-07  .410000000000D+02
     .216000000000D+05  .400000000000D+01
19 23  4  2  8  0  0.0  .298167578876D-03  .511590769747D-11  .000000000000D+00
     .620000000000D+02 -.117500000000D+02  .393159233803D-08 -.953098062874D+00
    -.584870576859D-06  .924691709224D-02  .102575868368D-04  .515361319351D+04
     .288000000000D+05 -.214204192162D-06  .231477529292D+01  .931322574615D-08
     .973967775702D+00  .192093750000D+03  .226294296722D+01 -.778068123946D-08
    -.191079387795D-09  .100000000000D+01  .225600000000D+04  .000000000000D+00
     .240000000000D+01  .000000000000D+00 -.153668224812D-07  .620000000000D+02
     .216000000000D+05  .400000000000D+01
17 23  4  2  8  0  0.0  .708598643541D-03  .193267624127D-11  .000000000000D+00
     .340000000000D+02 -.147187500000D+02  .382980238378D-08 -.311863767685D+01
    -.623986124992D-06  .135198909556D-01  .102706253529D-04  .515374287605D+04
     .288000000000D+05  .856816768646D-07  .227019517001D+01  .372529029846D-08
     .974907353856D+00  .186718750000D+03 -.141284783693D+01 -.743923844557D-08
    -.378587198248D-09  .100000000000D+01  .225600000000D+04  .000000000000D+00
     .240000000000D+01  .000000000000D+00 -.111758708954D-07  .340000000000D+02
     .216000000000D+05  .400000000000D+01
16 23  4  2  8  0  0.0 -.511656049639D-03  .250111042988D-11  .000000000000D+00
     .750000000000D+02  .403125000000D+01  .463376444346D-08 -.222361212354D+01
     .149011611938D-06  .133890769212D-01  .463612377644D-05  .515356923866D+04
     .288000000000D+05  .106170773506D-06  .124899625464D+01 -.987201929092D-07
     .965390153038D+00  .292125000000D+03  .783090862169D+00 -.800854787388D-08
    -.685742849656D-10  .100000000000D+01  .225600000000D+04  .000000000000D+00
     .240000000000D+01  .000000000000D+00 -.102445483208D-07  .750000000000D+02
     .216000000000D+05  .400000000000D+01
15 23  4  2  8  0  0.0  .269631855190D-04  .341060513165D-11  .000000000000D+00
     .890000000000D+02 -.937812500000D+02  .517414409530D-08  .224952548343D+01
    -.507570803165D-05  .147941554897D-01  .740401446819D-05  .515370447731D+04
     .288000000000D+05  .651925802231D-07 -.107223122676D+01 -.270083546638D-06
     .931952816741D+00  .221375000000D+03  .118591441368D+01 -.816926885427D-08
    -.232152527227D-09  .100000000000D+01  .225600000000D+04  .000000000000D+00
     .240000000000D+01  .000000000000D+00 -.107102096081D-07  .890000000000D+02
     .216000000000D+05  .400000000000D+01
11 23  4  2  8  0  0.0 -.149179250002D-03 -.121644916362D-10  .000000000000D+00
     .260000000000D+02  .741562500000D+02  .423696220077D-08  .251560666909D+01
     .405870378017D-05  .751570099965D-03  .781007111073D-05  .515372701836D+04
     .288000000000D+05 -.633299350739D-07 -.297717147537D+01 -.242143869400D-07
     .965369470302D+00  .227218750000D+03 -.274189167731D+01 -.798033241288D-08
     .397873715894D-09  .100000000000D+01  .225600000000D+04  .000000000000D+00
     .240000000000D+01  .000000000000D+00 -.884756445885D-08  .538000000000D+03
     .216000000000D+05  .400000000000D+01
25 23  4  2  8  0  0.0  .432467088103D-03  .295585778076D-11  .000000000000D+00
     .650000000000D+02  .123750000000D+02  .510771275674D-08 -.525365914319D+00
     .732019543648D-06  .111702822614D-01  .463426113129D-05  .515374886894D+04
     .288000000000D+05 -.558793544769D-07  .114896072118D+01  .156462192535D-06
     .953387284704D+00  .285531250000D+03  .104447022766D+01 -.858892919195D-08
    -.133219834855D-09  .100000000000D+01  .225600000000D+04  .000000000000D+00
     .240000000000D+01  .000000000000D+00  .558793544769D-08  .650000000000D+02
     .216000000000D+05  .400000000000D+01
23 23  4  2  8  0  0.0  .141873024404D-04  .238742359215D-11  .000000000000D+00
     .620000000000D+02 -.150000000000D+02  .465162233017D-08  .944176076609D-01
    -.730156898499D-06  .303709867876D-02  .308640301228D-05  .515364899063D+04
     .288000000000D+05  .130385160446D-07 -.201018400451D+01 -.204890966415D-07
     .972744422161D+00  .326312500000D+03 -.308735700218D+01 -.830856037060D-08
     .113219001740D-09  .100000000000D+01  .225600000000D+04  .000000000000D+00
     .240000000000D+01  .000000000000D+00 -.838190317154D-08  .318000000000D+03
     .216000000000D+05  .400000000000D+01
28 23  4  2  8  0  0.0  .572553835809D-04  .784439180279D-11  .000000000000D+00
     .720000000000D+02  .281562500000D+02  .446447167745D-08 -.118979777215D+01
     .144541263580D-05  .870271702297D-03  .997446477413D-05  .515365508652D+04
     .288000000000D+05 -.372529029846D-07  .781668187503D-01  .242143869400D-07
     .962059245103D+00  .184718750000D+03  .170571452597D+01 -.794318800852D-08
     .267511142913D-09  .100000000000D+01  .225600000000D+04  .000000000000D+00
     .240000000000D+01  .000000000000D+00 -.139698386192D-08  .840000000000D+03
     .216000000000D+05  .400000000000D+01
14 23  4  2  8  0  0.0  .129956752062D-04  .110276232590D-10  .000000000000D+00
     .174000000000D+03  .584375000000D+01  .511664170009D-08 -.345436125030D+00
     .968575477600D-07  .289233413059D-02  .449270009995D-05  .515366430664D+04
     .288000000000D+05  .106170773506D-06  .119285535140D+01  .130385160446D-07
     .949055887096D+00  .288781250000D+03 -.306761014481D+01 -.844963767561D-08
    -.215366113720D-09  .100000000000D+01  .225600000000D+04  .000000000000D+00
     .240000000000D+01  .000000000000D+00 -.791624188423D-08  .686000000000D+03
     .216000000000D+05  .400000000000D+01
